#dV2023  1 28 10  0  0.00000000    1682       CTS   FIT  GFZ
## 2246 554400.00000000    30.00000000 59972 0.4166666666667
+    1   L65  0  0  0  0  0  0  0  0  0  0  0  0  0  0  0  0
+          0  0  0  0  0  0  0  0  0  0  0  0  0  0  0  0  0
+          0  0  0  0  0  0  0  0  0  0  0  0  0  0  0  0  0
+          0  0  0  0  0  0  0  0  0  0  0  0  0  0  0  0  0
+          0  0  0  0  0  0  0  0  0  0  0  0  0  0  0  0  0
++         0  0  0  0  0  0  0  0  0  0  0  0  0  0  0  0  0
++         0  0  0  0  0  0  0  0  0  0  0  0  0  0  0  0  0
++         0  0  0  0  0  0  0  0  0  0  0  0  0  0  0  0  0
++         0  0  0  0  0  0  0  0  0  0  0  0  0  0  0  0  0
++         0  0  0  0  0  0  0  0  0  0  0  0  0  0  0  0  0
%c L  cc GPS ccc cccc cccc cccc cccc ccccc ccccc ccccc ccccc
%c cc cc ccc ccc cccc cccc cccc cccc ccccc ccccc ccccc ccccc
%f  0.0000000  0.000000000  0.00000000000  0.000000000000000
%f  0.0000000  0.000000000  0.00000000000  0.000000000000000
%i    0    0    0    0      0      0      0      0         0
%i    0    0    0    0      0      0      0      0         0
/* CCCCCCCCCCCCCCCCCCCCCCCCCCCCCCCCCCCCCCCCCCCCCCCCCCCCCCCCCCCCCCCCCCCCCCCCCCCCC
/* C                             GFZ RSO-ORBIT                                 C
/* C DOI: https://doi.org/10.5880/GFZ_ORBIT/RSO/L65_G_v02                      C
/* C                                                                           C
/* C DORIS        RMS: not applicable                                          C
/* C GNSS-E Code  RMS: not applicable                                          C
/* C GNSS-E Phase RMS: not applicable                                          C
/* C GNSS-G Code  RMS:  51.910 [cm]   Obs.acc.:     13980 Obs.eli.:      1007  C
/* C GNSS-G Phase RMS:   4.599 [mm]   Obs.acc.:     13980 Obs.eli.:      1007  C
/* C SLR          RMS:   0.711 [cm]   Obs.acc.:        25 Obs.eli.:         0  C
/* C                                                                           C
/* CCCCCCCCCCCCCCCCCCCCCCCCCCCCCCCCCCCCCCCCCCCCCCCCCCCCCCCCCCCCCCCCCCCCCCCCCCCCC
*  2023  1 28 13 49 30.00000000
PL65   5016.978131   3347.859192   3302.638686    994.181757
VL65 -28888.343206 -22729.289275  66683.734143 999999.999999
*  2023  1 28 13 50  0.00000000
PL65   4927.422729   3278.039350   3500.826636    994.650068
VL65 -30810.569033 -23811.600711  65429.396196 999999.999999
*  2023  1 28 13 50 30.00000000
PL65   4832.143977   3205.024143   3695.142760    995.118436
VL65 -32703.535620 -24859.358654  64102.757404 999999.999999
*  2023  1 28 13 51  0.00000000
PL65   4731.233008   3128.918769   3885.372357    995.586914
VL65 -34565.010982 -25871.547101  62705.297997 999999.999999
*  2023  1 28 13 51 30.00000000
PL65   4624.787603   3049.831395   4071.305277    996.055360
VL65 -36392.795121 -26847.202427  61238.570264 999999.999999
*  2023  1 28 13 52  0.00000000
PL65   4512.912101   2967.873006   4252.736131    996.523672
VL65 -38184.716702 -27785.407596  59704.197616 999999.999999
*  2023  1 28 13 52 30.00000000
PL65   4395.717307   2883.157273   4429.464518    996.991972
VL65 -39938.635400 -28685.290563  58103.882983 999999.999999
*  2023  1 28 13 53  0.00000000
PL65   4273.320392   2795.800406   4601.295270    997.460147
VL65 -41652.452437 -29546.031901  56439.411831 999999.999999
*  2023  1 28 13 53 30.00000000
PL65   4145.844744   2705.920986   4768.038688    997.928614
VL65 -43324.119758 -30366.870673  54712.641674 999999.999999
*  2023  1 28 13 54  0.00000000
PL65   4013.419823   2613.639792   4929.510737    998.397076
VL65 -44951.638706 -31147.101518  52925.490243 999999.999999
*  2023  1 28 13 54 30.00000000
PL65   3876.181016   2519.079641   5085.533224    998.865566
VL65 -46533.054585 -31886.070578  51079.935533 999999.999999
*  2023  1 28 13 55  0.00000000
PL65   3734.269509   2422.365233   5235.933987    999.334017
VL65 -48066.458582 -32583.176724  49178.019946 999999.999999
*  2023  1 28 13 55 30.00000000
PL65   3587.832136   2323.622991   5380.547086    999.802399
VL65 -49549.993410 -33237.873868  47221.848204 999999.999999
*  2023  1 28 13 56  0.00000000
PL65   3437.021222   2222.980891   5519.212981   1000.270776
VL65 -50981.856100 -33849.671941  45213.582546 999999.999999
*  2023  1 28 13 56 30.00000000
PL65   3281.994421   2120.568295   5651.778701   1000.739118
VL65 -52360.298458 -34418.136704  43155.439097 999999.999999
*  2023  1 28 13 57  0.00000000
PL65   3122.914546   2016.515785   5778.098004   1001.207437
VL65 -53683.628237 -34942.889138  41049.686486 999999.999999
*  2023  1 28 13 57 30.00000000
PL65   2959.949400   1910.954998   5898.031529   1001.675779
VL65 -54950.211821 -35423.605779  38898.644277 999999.999999
*  2023  1 28 13 58  0.00000000
PL65   2793.271596   1804.018456   6011.446946   1002.144198
VL65 -56158.476605 -35860.019034  36704.679619 999999.999999
*  2023  1 28 13 58 30.00000000
PL65   2623.058372   1695.839401   6118.219094   1002.612588
VL65 -57306.912325 -36251.916271  34470.204123 999999.999999
*  2023  1 28 13 59  0.00000000
PL65   2449.491400   1586.551634   6218.230113 999999.999999
VL65 -58394.072325 -36599.139145  32197.671784 999999.999999
*  2023  1 28 13 59 30.00000000
PL65   2272.756597   1476.289347   6311.369562   1003.549260
VL65 -59418.575059 -36901.583710  29889.577103 999999.999999
*  2023  1 28 14  0  0.00000000
PL65   2093.043924   1365.186962   6397.534544   1004.017733
VL65 -60379.106149 -37159.200159  27548.452852 999999.999999
*  2023  1 28 14  0 30.00000000
PL65   1910.547179   1253.378972   6476.629816   1004.486130
VL65 -61274.421173 -37371.992288  25176.867454 999999.999999
*  2023  1 28 14  1  0.00000000
PL65   1725.463788   1140.999777   6548.567887   1004.954556
VL65 -62103.347743 -37540.017446  22777.420959 999999.999999
*  2023  1 28 14  1 30.00000000
PL65   1537.994584   1028.183525   6613.269108   1005.423083
VL65 -62864.785370 -37663.385988  20352.741130 999999.999999
*  2023  1 28 14  2  0.00000000
PL65   1348.343595    915.063957   6670.661754   1005.891618
VL65 -63557.705515 -37742.260189  17905.481876 999999.999999
*  2023  1 28 14  2 30.00000000
PL65   1156.717825    801.774246   6720.682097   1006.360158
VL65 -64181.153505 -37776.853954  15438.321482 999999.999999
*  2023  1 28 14  3  0.00000000
PL65    963.327029    688.446850   6763.274480   1006.828579
VL65 -64734.249601 -37767.432361  12953.959470 999999.999999
*  2023  1 28 14  3 30.00000000
PL65    768.383487    575.213354   6798.391371   1007.297080
VL65 -65216.189469 -37714.310909  10455.115023 999999.999999
*  2023  1 28 14  4  0.00000000
PL65    572.101777    462.204320   6825.993424   1007.765554
VL65 -65626.246449 -37617.856023   7944.524903 999999.999999
*  2023  1 28 14  4 30.00000000
PL65    374.698541    349.549136   6846.049524   1008.234083
VL65 -65963.773032 -37478.484625   5424.938714 999999.999999
*  2023  1 28 14  5  0.00000000
PL65    176.392241    237.375865   6858.536820   1008.702620
VL65 -66228.200962 -37296.662450   2899.115950 999999.999999
*  2023  1 28 14  5 30.00000000
PL65    -22.597076    125.811099   6863.440750   1009.171123
VL65 -66419.042572 -37072.903558    369.823650 999999.999999
*  2023  1 28 14  6  0.00000000
PL65   -222.048019     14.979820   6860.755063   1009.639731
VL65 -66535.891422 -36807.769148  -2160.167694 999999.999999
*  2023  1 28 14  6 30.00000000
PL65   -421.738103    -94.994745   6850.481817   1010.108318
VL65 -66578.421878 -36501.865413  -4688.086459 999999.999999
*  2023  1 28 14  7  0.00000000
PL65   -621.443986   -203.991252   6832.631388   1010.576867
VL65 -66546.389972 -36155.842800  -7211.160834 999999.999999
*  2023  1 28 14  7 30.00000000
PL65   -820.941718   -311.890376   6807.222466   1011.045466
VL65 -66439.635303 -35770.396189  -9726.621541 999999.999999
*  2023  1 28 14  8  0.00000000
PL65  -1020.006996   -418.574942   6774.282035   1011.514143
VL65 -66258.081619 -35346.264301 -12231.706570 999999.999999
*  2023  1 28 14  8 30.00000000
PL65  -1218.415412   -523.930056   6733.845353   1011.982791
VL65 -66001.735606 -34884.227891 -14723.664772 999999.999999
*  2023  1 28 14  9  0.00000000
PL65  -1415.942703   -627.843225   6685.955913   1012.451424
VL65 -65670.686504 -34385.108260 -17199.757084 999999.999999
*  2023  1 28 14  9 30.00000000
PL65  -1612.364999   -730.204482   6630.665402   1012.920020
VL65 -65265.107611 -33849.766450 -19657.258470 999999.999999
*  2023  1 28 14 10  0.00000000
PL65  -1807.459075   -830.906500   6568.033660   1013.388638
VL65 -64785.257196 -33279.102188 -22093.462189 999999.999999
*  2023  1 28 14 10 30.00000000
PL65  -2001.002609   -929.844708   6498.128612   1013.857204
VL65 -64231.477026 -32674.052134 -24505.683595 999999.999999
*  2023  1 28 14 11  0.00000000
PL65  -2192.774428  -1026.917397   6421.026203   1014.325774
VL65 -63604.191126 -32035.587553 -26891.261359 999999.999999
*  2023  1 28 14 11 30.00000000
PL65  -2382.554755  -1122.025822   6336.810327   1014.794391
VL65 -62903.906807 -31364.712254 -29247.557572 999999.999999
*  2023  1 28 14 12  0.00000000
PL65  -2570.125461  -1215.074295   6245.572753   1015.263039
VL65 -62131.217215 -30662.462529 -31571.959845 999999.999999
*  2023  1 28 14 12 30.00000000
PL65  -2755.270329  -1305.970290   6147.413044   1015.731657
VL65 -61286.801833 -29929.907199 -33861.886469 999999.999999
*  2023  1 28 14 13  0.00000000
PL65  -2937.775308  -1394.624532   6042.438458   1016.200417
VL65 -60371.425024 -29168.145861 -36114.790365 999999.999999
*  2023  1 28 14 13 30.00000000
PL65  -3117.428764  -1480.951088   5930.763836   1016.669076
VL65 -59385.935564 -28378.307696 -38328.161798 999999.999999
*  2023  1 28 14 14  0.00000000
PL65  -3294.021738  -1564.867458   5812.511490   1017.137544
VL65 -58331.265473 -27561.550844 -40499.531668 999999.999999
*  2023  1 28 14 14 30.00000000
PL65  -3467.348188  -1646.294659   5687.811075   1017.605901
VL65 -57208.428955 -26719.060691 -42626.473998 999999.999999
EOF
